INTELSAT 10 (IS-10)     
1 26766U 01019A   25340.47907061 -.00000237  00000+0  00000+0 0  9997
2 26766   8.6144  61.2183 0007851 220.2225 132.1998  0.99078798 43668
INTELSAT 902 (IS-902)   
1 26900U 01039A   25335.70832537 -.00000263  00000+0  00000+0 0  9993
2 26900   5.6187  74.2002 0004309 175.1190  26.3816  1.00270327 88713
INTELSAT 904 (IS-904)   
1 27380U 02007A   25340.49184346 -.00000222  00000+0  00000+0 0  9997
2 27380   6.4388  71.5029 0001730 210.4172 299.1554  1.00268726 49834
DIRECTV 5 (TEMPO 1)     
1 27426U 02023A   25340.45198487 -.00000052  00000+0  00000+0 0  9994
2 27426   4.3854  77.7251 0003911 195.0689 215.2902  1.00271507 86196
INTELSAT 905 (IS-905)   
1 27438U 02027A   25337.40328877  .00000109  00000+0  00000+0 0  9992
2 27438   6.2606  72.1621 0003129 189.1417 179.1858  1.00273288 49408
GALAXY 3C (G-3C)        
1 27445U 02030A   25340.45747602 -.00000147  00000+0  00000+0 0  9997
2 27445   3.2479  80.5680 0001206 102.1623 322.5966  1.00270555 44567
INTELSAT 906 (IS-906)   
1 27513U 02041A   25340.36808269  .00000018  00000+0  00000+0 0  9998
2 27513   5.3127  75.3075 0006036 187.7214   9.0301  1.00270373 85098
GALAXY 13 (HORIZONS-1)  
1 27954U 03044A   25340.55682810  .00000139  00000+0  00000+0 0  9998
2 27954   0.9195  86.5516 0002064 166.4040 233.1174  1.00273931 44642
INTELSAT 10-02          
1 28358U 04022A   25340.43030782 -.00000004  00000+0  00000+0 0  9998
2 28358   0.0389  75.8915 0001165 208.9538 304.5467  1.00270506 78624
XM-3 (RHYTHM)           
1 28626U 05008A   25340.57906950 -.00000268  00000+0  00000+0 0  9997
2 28626   0.1582  81.0530 0001162 259.8343  86.7474  0.98954530 40680
DIRECTV 8               
1 28659U 05019A   25340.44789696  .00000008  00000+0  00000+0 0  9998
2 28659   0.0058  28.2318 0003273 228.6640 220.7862  1.00271168 75142
GALAXY 28 (G-28)        
1 28702U 05022A   25340.45968139 -.00000181  00000+0  00000+0 0  9996
2 28702   2.8026  81.3552 0002645 174.6698 256.2716  1.00271723 50042
GALAXY 16 (G-16)        
1 29236U 06023A   25340.45578042 -.00000120  00000+0  00000+0 0  9994
2 29236   0.0048 275.3085 0003015 347.0055 238.2548  1.00271146 71045
DIRECTV 9S              
1 29494U 06043A   25340.45499185 -.00000107  00000+0  00000+0 0  9997
2 29494   1.9232  83.2743 0003255 173.5807 241.2272  1.00270526 49455
GALAXY 17 (G-17)        
1 31307U 07016B   25340.46091877 -.00000200  00000+0  00000+0 0  9995
2 31307   2.4834  82.3546 0006069 160.2090 273.8633  1.00270084 67876
DIRECTV 10              
1 31862U 07032A   25340.01155868 -.00000094  00000+0  00000+0 0  9992
2 31862   0.0039  84.3473 0000361 112.2755 139.8068  1.00271476 43657
INTELSAT 11 (IS-11)     
1 32253U 07044B   25340.45334014  .00000048  00000+0  00000+0 0  9998
2 32253   3.0630  81.0448 0009267 163.0694 247.9513  0.99047176 66542
HORIZONS-2              
1 32388U 07063B   25340.46488583 -.00000247  00000+0  00000+0 0  9992
2 32388   2.1044  83.0266 0005078 184.0397 262.0182  1.00271167 65887
DIRECTV 11              
1 32729U 08013A   25339.90767117 -.00000116  00000+0  00000+0 0  9992
2 32729   0.0051 253.8201 0000479 295.7852 112.9152  1.00269240 43653
GALAXY 18 (G-18)        
1 32951U 08024A   25340.50669745  .00000032  00000+0  00000+0 0  9993
2 32951   0.0154  44.8157 0003325 211.8447 238.2877  1.00270023 43921
INTELSAT 25 (IS-25)     
1 33153U 08034A   25340.49184346 -.00000218  00000+0  00000+0 0  9993
2 33153   2.2109  82.7166 0005442 181.0007 317.3863  1.00270733 63769
GALAXY 19 (G-19)        
1 33376U 08045A   25340.45642080 -.00000132  00000+0  00000+0 0  9997
2 33376   0.0219  61.0690 0003449 205.7865 235.9559  1.00270674 62970
FM-5                    
1 35493U 09034A   25340.40968294 -.00000194  00000+0  00000+0 0  9999
2 35493   0.0186 289.1399 0000736 285.1276 282.5229  1.00277404 44710
INTELSAT 14 (IS-14)     
1 36097U 09064A   25340.41782966 -.00000266  00000+0  00000+0 0  9994
2 36097   0.0097 338.1234 0002734 280.7547 282.0094  1.00271178 58674
INTELSAT 15 (IS-15)     
1 36106U 09067A   25340.51498360 -.00000178  00000+0  00000+0 0  9993
2 36106   0.0157 334.0261 0002507 284.9053  87.1736  1.00270382 39293
DIRECTV 12              
1 36131U 09075A   25340.45435626 -.00000096  00000+0  00000+0 0  9998
2 36131   0.0504 137.5191 0000530 212.6950 146.1209  1.00270908 44621
INTELSAT 16 (IS-16)     
1 36397U 10006A   25340.46376328 -.00000238  00000+0  00000+0 0  9990
2 36397   0.0133 313.3929 0002484 308.2070 264.6636  1.00275053 57722
XM-5                    
1 37185U 10053A   25340.47520334 -.00000016  00000+0  00000+0 0  9991
2 37185   0.0612 273.3080 0001414 245.2139 332.8779  1.00271273 55556
INTELSAT 17 (IS-17)     
1 37238U 10065B   25340.51117024  .00000005  00000+0  00000+0 0  9993
2 37238   0.0089 303.9749 0002465 308.7158  72.8813  1.00271623 51317
INTELSAT 28 (IS-28)     
1 37392U 11016A   25340.42042968 -.00000218  00000+0  00000+0 0  9992
2 37392   1.3075  85.1332 0004163 176.6290 293.3475  1.00270598 51358
INTELSAT 18 (IS-18)     
1 37834U 11056A   25340.60738929  .00000060  00000+0  00000+0 0  9990
2 37834   0.0165 323.2539 0002147 298.0246 213.0255  1.00271718 51888
INTELSAT 22 (IS-22)     
1 38098U 12011A   25340.51238359 -.00000052  00000+0  00000+0 0  9999
2 38098   0.0097  36.1141 0001762 230.1829  65.8196  1.00271093  5253
INTELSAT 19 (IS-19)     
1 38356U 12030A   25340.52559741 -.00000050  00000+0  00000+0 0  9997
2 38356   0.0102   0.7713 0003541 261.9134 168.0982  1.00270226 48519
INTELSAT 20 (IS-20)     
1 38740U 12043A   25340.51169024 -.00000018  00000+0  00000+0 0  9992
2 38740   0.0079  76.3857 0002762 107.7543 144.1327  1.00270942 48818
INTELSAT 21 (IS-21)     
1 38749U 12045A   25340.48655676 -.00000278  00000+0  00000+0 0  9990
2 38749   0.0166 347.1755 0002263 263.8521 301.6640  1.00271258 48590
INTELSAT 23 (IS-23)     
1 38867U 12057A   25340.48751009 -.00000278  00000+0  00000+0 0  9991
2 38867   0.0474  98.6565 0001687 128.5865 330.7637  1.00267666 48022
FM-6                    
1 39360U 13058A   25340.44882064 -.00000010  00000+0  00000+0 0  9998
2 39360   0.0119 101.1481 0002843  71.9621 307.8093  1.00272080 44146
INTELSAT 30 (IS-30)     
1 40271U 14062A   25340.45771348 -.00000142  00000+0  00000+0 0  9996
2 40271   0.0130  13.4270 0001623  84.1507  47.6396  1.00259344  4854
DIRECTV 14              
1 40333U 14078B   25340.45578150 -.00000118  00000+0  00000+0 0  9991
2 40333   0.0171 336.5388 0000362 244.0380 279.7819  1.00270117 40110
DIRECTV 15              
1 40663U 15026A   25340.45435602 -.00000096  00000+0  00000+0 0  9990
2 40663   0.0393  80.8757 0000453 174.9502 240.3768  1.00272182 38533
SKY MEXICO-1            
1 40664U 15026B   25340.46327869 -.00000227  00000+0  00000+0 0  9993
2 40664   0.0128  27.0502 0002769 242.5466 253.9210  1.00271024 38529
INTELSAT 34 (IS-34)     
1 40874U 15039A   25340.41574964 -.00000278  00000+0  00000+0 0  9991
2 40874   0.0113 309.7424 0000674 238.8408 341.0453  1.00272262 37696
INTELSAT 31 (IS-31)     
1 41581U 16035A   25340.45708128 -.00000142  00000+0  00000+0 0  9999
2 41581   0.0205 270.4524 0002172 292.1707 302.3653  1.00259048 34752
INTELSAT 36 (IS-36)     
1 41747U 16053A   25340.44027647 -.00000017  00000+0  00000+0 0  9993
2 41747   0.0114 358.7384 0001520 316.7777 346.9633  1.00270069 34012
INTELSAT 32E (IS-32E)   
1 41945U 17007B   25340.48950345 -.00000262  00000+0  00000+0 0  9999
2 41945   0.0305  68.4783 0000148 205.7455 294.3476  1.00269550 32299
INTELSAT 35E (IS-35E)   
1 42818U 17041A   25340.41990968 -.00000231  00000+0  00000+0 0  9991
2 42818   0.0158 350.8030 0002414 269.1644 292.1759  1.00270131 30880
INTELSAT 37E (IS-37E)   
1 42950U 17059A   25340.42311637 -.00000133  00000+0  00000+0 0  9999
2 42950   0.0169 336.2223 0003480 276.0192 317.5473  1.00270742 30131
AZERSPACE 2 (IS-38)     
1 43632U 18074A   25340.24072606  .00000145  00000+0  00000+0 0  9997
2 43632   0.0015 351.9319 0001636 265.9250 309.2023  1.00270240 26511
HORIZONS-3E             
1 43633U 18074B   25340.16850102 -.00000022  00000+0  00000+0 0  9999
2 43633   0.0412 188.1076 0001204  91.4759  25.3122  1.00269385 26402
AT&T T-16               
1 44333U 19034A   25339.90741117 -.00000106  00000+0  00000+0 0  9992
2 44333   0.0289  66.1436 0000693 104.6880 129.9319  1.00271318 23696
INTELSAT 39 (IS-39)     
1 44476U 19049B   25340.51030358  .00000041  00000+0  00000+0 0  9990
2 44476   0.0176 331.1774 0000755 187.2045 162.8225  1.00270371 23193
GALAXY 30 (G-30)        
1 46114U 20056C   25340.54795803  .00000044  00000+0  00000+0 0  9990
2 46114   0.0154 344.8780 0002478 268.4209 254.5503  1.00270345 19369
GALAXY 33 (G-33)        
1 54026U 22128A   25340.54538736  .00000086  00000+0  00000+0 0  9999
2 54026   0.0181  38.1266 0002243 212.9098 247.8858  1.00270117 11819
GALAXY 34 (G-34)        
1 54027U 22128B   25340.54673572  .00000000  00000+0  00000+0 0  9994
2 54027   0.0207 344.4341 0001249 262.3688 256.6678  1.00269823 11983
GALAXY 31 (G-31)        
1 54243U 22153A   25340.47407667  .00000020  00000+0  00000+0 0  9996
2 54243   0.0114  58.4305 0001971 208.3356 218.4165  1.00270841  5203
GALAXY 32 (G-32)        
1 54244U 22153B   25340.45890471 -.00000167  00000+0  00000+0 0  9997
2 54244   0.0115  13.2442 0002674 291.9174 204.5447  1.00270596 11217
GALAXY 35 (G-35)        
1 54741U 22170A   25340.45832226 -.00000155  00000+0  00000+0 0  9999
2 54741   0.0156  37.9827 0002730 225.3821 244.0405  1.00271248 10966
GALAXY 36 (G-36)        
1 54742U 22170B   25340.45958469  .00000000  00000+0  00000+0 0  9996
2 54742   0.0130 335.9806 0000648 292.9746 242.9837  1.00269622 10845
GALAXY 37 (G-37)        
1 57493U 23112A   25340.54740167  .00000055  00000+0  00000+0 0  9993
2 57493   0.0116 340.5945 0002409 279.2947 245.7650  1.00270454  8610
